OBJECT B                
1 51825U 22019B   24210.94893249  .00012987  00000+0  55075-3 0  9993
2 51825  97.4265 281.8100 0015520  94.5125 265.7885 15.23139623133581
